ONEWEB-0235             
1 48771U 21045E   25069.86311625  .00000009  00000+0 -96730-5 0  9992
2 48771  87.9138 351.4827 0002504  78.9020 281.2392 13.15549849184584
ONEWEB-0242             
1 48772U 21045F   25069.78071706  .00000016  00000+0  74830-5 0  9991
2 48772  87.9138 351.4851 0002048  81.6611 278.4751 13.15550179183496
ONEWEB-0241             
1 48773U 21045G   25070.07227714  .00000192  00000+0  47539-3 0  9997
2 48773  87.9141 351.4975 0002109  70.2957 289.8400 13.15549118184571
ONEWEB-0243             
1 48774U 21045H   25070.48424433  .00000035  00000+0  59918-4 0  9991
2 48774  87.9147 351.3789 0002384  80.0991 280.0408 13.15551133184652
ONEWEB-0222             
1 48775U 21045J   25069.85914808  .00000016  00000+0  75841-5 0  9994
2 48775  87.9137 351.4777 0001960  74.5495 285.5851 13.15550237183482
ONEWEB-0244             
1 48776U 21045K   25070.03739655 -.00000361  00000+0 -99373-3 0  9991
2 48776  87.9135 351.4211 0002031  82.7613 277.3748 13.15547933185190
ONEWEB-0247             
1 48777U 21045L   25069.80605847 -.00000313  00000+0 -86586-3 0  9999
2 48777  87.9141 351.5283 0002871  79.5510 280.5944 13.15547217183489
ONEWEB-0245             
1 48778U 21045M   25069.80131442 -.00000127  00000+0 -37267-3 0  9990
2 48778  87.9137 351.5020 0001919  71.3558 288.7780 13.15549782183452
